#dP2022  5 24  6  0  0.00000000      96 __u+U ITR00 EXT  IAC
## 2211 194400.00000000   900.00000000 59723 0.2500000000000
+  117   C06C07C08C09C10C11C12C13C14C16C19C20C21C22C23C24C25
+        C26C27C28C29C30C32C33C34C35C36C37C38C39C40C41C42C43
+        C44C45C46E01E02E03E04E05E07E08E09E10E11E12E13E14E15
+        E18E19E21E24E25E26E27E30E31E33E34E36G01G02G03G04G05
+        G06G07G08G09G10G11G12G13G14G15G16G17G18G19G20G21G22
+        G23G24G25G26G27G28G29G30G31G32J02J03R01R02R03R04R05
+        R07R08R09R11R12R13R14R15R17R18R19R20R21R22R24  0  0
++        11  8 10  9  8  7  9  9  9  8  9  9  8  9  7  9  9
++         9  9  8 10  9  9  8  8  8 10  9  9  8 10  9  9  9
++         8  8  8  9  7  8  8  7  8  7  7  7  8  8  7  7  8
++         7  8  8  9  8  8  7  7  9  9  8  7  7  9  8  7  8
++         7  8  8  7  8  7  7  8  9  8  7  8  8  8  8 10  8
++         8  9  8  8  7  8  8  7  8  7  9 11  9  8  8  7  8
++         9  7  7  8  8  8  8  7  8  7  9  9  7  7  9  0  0
%c M  cc GPS ccc cccc cccc cccc cccc ccccc ccccc ccccc ccccc
%c cc cc ccc ccc cccc cccc cccc cccc ccccc ccccc ccccc ccccc
%f  0.0000000  0.000000000  0.00000000000  0.000000000000000
%f  0.0000000  0.000000000  0.00000000000  0.000000000000000
%i    0    0    0    0      0      0      0      0         0
%i    0    0    0    0      0      0      0      0         0
/* IAC                                ULTRA-RAPID PREDICTION
/* S/V CLOCKS ARE ALIGNED TO GNSS TIME                      
/* G:C1WC2W R:C1PC2P E:C1XC5X C:C2IC6I J:C1CC2S             
/* PCV:IGS14_2196 OL/AL:FES2004  NONE     YN ORB:CoN CLK:CoN
*  2022 05 25  3 15  0.00000000
PC06  -1271.233774  35607.831742 -22369.199512     52.032889
PC07 -12475.964607  25930.426382  30785.960861   -210.463046
PC08 -17526.444311  37146.877982  -9853.371365    329.885694
PC09   4143.928266  38662.203948 -15281.072630   -819.234771
PC10  -2667.862449  27009.201576  32495.424201    130.478920
PC11  -4488.706382  19470.541585  19549.766837    372.931429
PC12 -15825.242407   2325.082762  22893.597001   -610.784812
PC13 -11523.912790  37419.718522 -15854.636816    -23.155644
PC14 -13057.435705  13826.548778 -20375.976212    483.000863
PC16  -3382.467310  33541.167488 -24988.363199    134.451299
PC19   2100.922547 -15740.232079  22978.501444    866.487184
PC20  20542.912479 -10440.094242  15783.872857   -929.069123
PC21 -27811.031419  -1568.385820   1435.244048   -354.650850
PC22 -18310.570677 -12185.176643  17161.975497   -968.001046
PC23   7863.223331  16339.899072  21217.558488   -930.686328
PC24 -18775.118360  18774.451361  -8629.936916   -968.960098
PC25  -6486.809374  25295.211239   9860.446989   -731.756547
PC26 -18806.664418   3354.929123 -20362.825661    733.063416
PC27  18872.479314   7062.204415 -19323.131219    728.448476
PC28  15929.568541  22304.769563  -5253.574999     70.678475
PC29  -4189.292043 -24578.854478 -12547.909342    559.224764
PC30  11029.741824 -12206.290261 -22554.755617    498.968417
PC32  27845.353236   1343.838258  -1423.580893   -964.389833
PC33  -2056.704217  15758.897957 -22927.111664   -966.426955
PC34 -10389.128520  13123.674632  22309.586753   -396.001222
PC35 -16259.259601 -22304.337821   4224.312025    289.541663
PC36   7495.168799 -25181.423475  -9379.296689   -965.069982
PC37  18488.846790  -1632.728264  20849.980967   -909.163739
PC38 -21178.407171  36497.151058  -1927.767834    234.525236
PC39  -6653.677537  29626.828592 -29155.973196     34.974140
PC40 -18499.127177  19293.827037  32543.877481    271.843630
PC41  17982.675944  12301.485281 -17384.399739   -966.699127
PC42 -21324.974613   9941.652165 -14938.434833   -968.482330
PC43   3490.984481  24399.761570  13048.804296   -922.142373
PC44 -19250.889471  -6607.981568  19090.627448    670.519024
PC45  -8004.838982 -16021.421502 -21391.957745    765.824241
PC46  18221.929336 -19821.882436   7274.015770   -342.694816
PE01  18179.168839   7218.829559  22215.490956   -483.069334
PE02 -18328.724208  -7080.908917 -22144.807239    301.334515
PE03 -24914.403293 -15919.433803   1264.602932   -561.767790
PE04  24867.588892   1713.901733  15978.647017  -1035.283013
PE05 -10303.958088 -21039.047689  18100.174974   -178.473344
PE07 -10054.834985  13846.407152 -24140.205489   -671.856021
PE08 -24706.725541  -1504.051391 -16215.240186   -534.903882
PE09   9867.283433 -13811.768360  24259.380358   -529.967142
PE10  13583.765287 -15985.521870 -20896.763725   -515.217642
PE11   9061.144755 -24731.217472 -13541.413513   3566.962671
PE12  15919.495393  -5171.270371 -24423.618715   4596.926099
PE13  -9316.589491  24272.102928  14138.254527    428.889346
PE14  17162.841213 -11786.019126 -24271.850411  -1827.710270
PE15 -15843.571675   5001.172469  24495.955723    743.593020
PE18  -4286.918139  16301.560925  18060.972628  -1409.221794
PE19  23808.293353  17212.333203  -3602.056413  -5234.083495
PE21      8.669897  18169.302130  23365.623089   -736.171267
PE24  20236.598733 -19048.533589 -10174.038817   -633.487529
PE25    286.278948 -18268.692051 -23283.205608   -575.149912
PE26   3176.160830  28937.413801  -5353.770506  -1183.887256
PE27 -19325.777391  19431.736430  11195.129762   -306.529943
PE30 -27136.704713   8403.121694  -8347.968343   -537.743527
PE31  27113.815567  -9240.123203   7464.294993   -497.170709
PE33  12997.708767  17102.509252 -20361.963285   -456.303295
PE34 -13093.360340 -16903.299022  20457.050251   -518.753577
PE36  -2624.414084 -29154.519252   4433.528696   -378.459303
PG01 -13110.046672  15940.691621  16210.418727    355.657938
PG02  14023.764802   6934.151397 -20791.710321   -653.147858
PG03 -22531.649743  13047.557246  -5030.762464   -256.191053
PG04 -14962.379785   6624.322013 -20926.597402   -163.995819
PG05  24509.580402  -3771.652777  -9885.298265    -83.070249
PG06   6569.451584  21356.117417 -14237.457660    316.519357
PG07  -5241.134481  25603.965695  -2422.584730    322.203045
PG08 -20881.277346  -1045.860603  16546.354760    -69.369222
PG09  -4817.759512  15205.014691 -21296.956368   -334.083830
PG10  -3221.173078 -14814.724854  21933.778767   -427.666183
PG11  13530.669987   8263.607037 -21314.756473    -21.062946
PG12  24793.903775  -9275.117120  -1376.003156   -220.673029
PG13  21561.763762  11049.521678  10931.032790    317.659033
PG14   1314.662065  15708.661671  21363.874579   -109.655278
PG15  20730.456875  -1978.596758  16245.937573    -58.591525
PG16 -23026.582796  -2603.775213 -13655.453455   -503.704900
PG17  10525.040944  20819.423109  13077.305917    616.796366
PG18   6257.745870 -25519.012960  -3462.899231    161.016618
PG19  16457.877086  20322.379101   4997.226538    161.762071
PG20  18990.268674   3729.620994 -18085.432809    514.143347
PG21 -15377.188805   5050.713657  21587.661640    161.203833
PG22 -17937.151959 -19490.721696   3414.032786    264.641473
PG23   8765.218569 -17443.447966  17952.193647    -24.026150
PG24  14224.971377 -12178.590810  18379.011687    234.786670
PG25  15491.584627 -16876.279840 -13492.144051    328.969243
PG26 -15194.639597  -8981.175668 -20017.765306    207.910688
PG27 -22969.620318 -12008.717847   6468.530552    207.856873
PG28  10388.125686  12319.722521  21586.580865    351.662990
PG29   5831.180742 -14261.890480 -21678.485251   -517.160804
PG30   1115.810769  25587.827109   6601.572471   -529.133459
PG31  -8523.256389 -19216.361281 -16079.321843   -179.021090
PG32 -13826.407578 -20064.968543  10938.433126   -134.942096
PJ02 -29923.943806  29024.784641  11050.093245     -0.263179
PJ03 -25179.863492  25219.638357  27591.235923     -2.381050
PR01  -7848.155740 -11814.543756  21203.788618      9.076865
PR02 -23195.799507  -8300.312233   6778.412096    519.369543
PR03 -23226.501466    254.152801 -10552.667797     57.231606
PR04 -10263.361384   8239.226432 -21818.357217    143.137287
PR05   8246.415656  11840.189441 -21012.650218     93.451742
PR07  22820.770265   -708.882449  11372.224662     35.526145
PR08  10071.616871  -8490.234146  21900.569469    -65.312907
PR09  11897.703475   3100.908031  22376.540779     56.857077
PR11  15222.111203 -20164.413983  -3563.833387     38.120819
PR12   2439.599880 -16602.255459 -19179.534328     18.601832
PR13 -10771.239553  -4200.717523 -22751.211615    -22.765334
PR14 -18635.247980  11988.108685 -12607.434579     25.547856
PR15 -14999.850104  20142.168616   4474.950861     95.895646
PR17 -10533.057001   1628.692412  23174.508541    528.999343
PR18  -3030.310437  17597.618985  18197.912510    118.003618
PR19   4825.429457  24593.743427   4741.907423   -190.252423
PR20  11705.360877  17005.903374 -14950.042652    -71.258772
PR21   9998.776549  -3102.782764 -23267.678407   -303.977540
PR22   2606.982614 -18308.594753 -17640.193364   -185.287157
PR24 -12516.663468 -16078.045177  15348.719087     95.381582
EOF
